STARLINK-31827          
1 59727U 24088V   26068.46920324  .00000544  00000+0  30488-4 0  9993
2 59727  53.1597 141.2623 0001053  99.0010 261.1110 15.30189170103763
NUSHSAT1                
1 63211U 25052B   26068.64700493  .00023034  00000+0  74857-3 0  9997
2 63211  97.4095 325.7239 0005501  84.7512 275.4357 15.31903202 54882
